#cP2004  8 24  0  0  0.00000000      96 d+D   IGS00 FIT AIUB
## 1285 172800.00000000   900.00000000 53241 0.0000000000000
+   40   G01G03G04G05G06G07G08G09G10G11G13G14G15G16G17G18G19
+        G20G21G22G23G24G25G26G27G28G29G30G31R02R03R04R05R06
+        R17R18R21R22R23R24  0  0  0  0  0  0  0  0  0  0  0
+          0  0  0  0  0  0  0  0  0  0  0  0  0  0  0  0  0
+          0  0  0  0  0  0  0  0  0  0  0  0  0  0  0  0  0
++         4  4  4  6  4  4  4  4  5  4  4  4  4  4  4  5  4
++         5  4  6  4  4  4  4  4  4  6  4  4  7  7  6  7 10
++         6  6  6  7  6  6  0  0  0  0  0  0  0  0  0  0  0
++         0  0  0  0  0  0  0  0  0  0  0  0  0  0  0  0  0
++         0  0  0  0  0  0  0  0  0  0  0  0  0  0  0  0  0
%c M  cc GPS ccc cccc cccc cccc cccc ccccc ccccc ccccc ccccc
%c cc cc ccc ccc cccc cccc cccc cccc ccccc ccccc ccccc ccccc
%f  1.2500000  1.025000000  0.00000000000  0.000000000000000
%f  0.0000000  0.000000000  0.00000000000  0.000000000000000
%i    0    0    0    0      0      0      0      0         0
%i    0    0    0    0      0      0      0      0         0
/* CENTER FOR ORBIT DETERMINATION IN EUROPE (CODE)          
/* FINAL 3-DAY ORBIT FOR SOLUTION F3_04237                  
/* INCLUDING PRECISE CLOCK INFORMATION                      
/* CLK ANT Z-OFFSET(M): II&IIA 1.023; IIR 0.000             
*  2004  8 24  3 45  0.00000000
PG01  25273.784980   7194.703307  -3716.911964    359.729927
PG03  23122.033271  11569.855401  -6715.279219     38.130317
PG04  -5141.116851 -25832.335367  -1535.192478   -263.745999
PG05 -21800.521233  11050.148676  10041.958634     45.581917
PG06 -15098.661373   9966.067600 -19285.465796    390.057562
PG07  -6651.496887 -17118.272036  19658.949544    391.818027
PG08   1160.143980 -25486.990183  -6910.236789     -7.426970
PG09 -15261.718467    980.693995  21274.716594     -1.254801
PG10 -15872.853171  -5032.545070 -20819.186989     49.450165
PG11  16114.900185  -3228.677894  20863.716695    143.197726
PG13  12678.510698 -10200.969522 -21036.222318    -23.443997
PG14   5241.692423  16383.562005  20281.965578    -25.760121
PG15   3717.093770  26087.003092   1487.308391    310.690430
PG16  10736.344428  10756.706881 -21703.607408      6.935595
PG17 -14356.764902 -10170.690904 -19904.906051   -133.943565
PG18 -16699.959203  19191.620262   7210.503679    -68.313988
PG19  25128.298511   5804.319007   6318.216851    -10.133829
PG20  22350.841701 -11921.011201   7918.257019   -130.113001
PG21  -6800.211031  21654.523524 -13450.689781     78.648346
PG22  -6867.604876  19712.019478  16591.411285     15.943642
PG23  23409.204073  -1056.462771 -12700.045959    154.969694
PG24 -11499.447992 -19926.365371 -12898.916653     51.981013
PG25   9802.442708  24220.275794  -4381.075366     74.059443
PG26 -25496.170269  -8319.886727   1706.662706    202.680208
PG27   5644.035995 -20943.891346 -14495.188394    377.939618
PG28   5732.293504 -19898.944114  16655.208245     40.412743
PG29 -24688.971121  -9693.477264  -1937.815089    360.011672
PG30 -19103.775835  18342.752317  -1123.176265    553.109065
PG31    773.688635 -15858.083689  20927.444550    298.624384
PR02 -11935.784271  -2901.473952 -22481.518161 999999.999999
PR03 -19088.063759  12466.011853 -11310.465400 999999.999999
PR04 -15696.259656  19276.883712   5596.812084 999999.999999
PR05  -1733.971831  15642.792372  20050.620523 999999.999999
PR06  12206.597514   2415.685205  22138.098140 999999.999999
PR17 -22727.646712     52.728705 -11573.591630 999999.999999
PR18  -3536.455282  10396.383894 -22950.079955 999999.999999
PR21  22673.282195   -105.998030  11713.515779 999999.999999
PR22   9068.520536  -8586.983402  22239.487018 999999.999999
PR23 -10519.668332 -12209.177181  19778.132611 999999.999999
PR24 -23324.487681  -8584.125971   5730.253616 999999.999999
*  2004  8 24  4  0  0.00000000
PG01  25470.374591   7475.145049   -839.359320    359.732438
PG03  22173.916186  11654.992650  -9285.840670     38.132526
PG04  -4861.271103 -25898.845209   1334.914801   -263.760104
PG05 -21103.135746   9897.931345  12433.149736     45.584779
PG06 -17136.047515   9197.542641 -17942.879218    390.083713
PG07  -4471.751418 -16641.185332  20666.403069    391.799653
PG08   1562.609963 -24615.826842  -9581.386375     -7.426787
PG09 -15841.955389  -1459.207117  20860.594570     -1.257965
PG10 -14094.597434  -6651.417234 -21607.618484     49.448952
PG11  16826.647631   -945.124457  20541.616519    143.200702
PG13  14863.863555  -9394.270512 -19944.237081    -23.443339
PG14   2973.441376  15719.908855  21244.727727    -25.760814
PG15   3459.128070  26150.491591  -1394.757233    310.693652
PG16   8879.314597  12426.527105 -21648.698751      6.935184
PG17 -14484.936681 -12388.929500 -18591.800019   -133.952467
PG18 -17377.339646  19417.752042   4439.630918    -68.317367
PG19  25552.961188   6240.418310   3534.990425    -10.131793
PG20  21718.946780 -11036.241921  10509.828310   -130.110013
PG21  -7303.714616  20040.391885 -15567.203228     78.648367
PG22  -8343.735019  20682.777727  14595.708781     15.943996
PG23  24580.879396   -462.052808 -10278.470070    154.977883
PG24 -11513.962147 -21323.149015 -10474.440326     51.984027
PG25   9628.443427  24673.032963  -1582.217135     74.060406
PG26 -25508.820988  -8479.006264  -1155.874403    202.691362
PG27   6366.843025 -19199.050257 -16458.073906    377.954727
PG28   7185.979780 -20927.443593  14660.886114     40.413320
PG29 -24238.966267  -9760.598466  -4791.038863    360.003274
PG30 -19279.591824  18075.643043   1703.601231    553.106516
PG31   3190.126439 -15257.202655  21169.212760    298.633692
PR02 -10007.306357  -4903.749180 -23074.425529 999999.999999
PR03 -17958.475094  11369.163504 -13999.351463 999999.999999
PR04 -15925.886048  19762.568169   2423.362947 999999.999999
PR05  -3239.262824  17473.566703  18271.848830 999999.999999
PR06  10255.636711   4434.838528  22795.920398 999999.999999
PR17 -23976.325755    -83.829871  -8692.362478 999999.999999
PR18  -6308.393842   9829.443391 -22616.599476 999999.999999
PR21  23940.174199     21.704188   8837.781620 999999.999999
PR22  11700.131766  -8080.820612  21174.260447 999999.999999
PR23  -8057.063288 -11616.048008  21232.937983 999999.999999
PR24 -22476.911835  -8266.120223   8775.887825 999999.999999
*  2004  8 24  4 15  0.00000000
PG01  25367.600633   7652.740194   2052.663109    359.732731
PG03  20956.598010  11735.241274 -11699.357163     38.135695
PG04  -4505.776476 -25663.285642   4181.586161   -263.773993
PG05 -20293.559496   8515.935888  14606.889153     45.586498
PG06 -19040.531510   8567.395146 -16288.043187    390.109691
PG07  -2180.324684 -16253.795451  21331.809456    391.781194
PG08   2076.372809 -23481.815657 -12085.802781     -7.426818
PG09 -16521.147489  -3796.569589  20074.034296     -1.259065
PG10 -12358.790150  -8416.308416 -22027.652528     49.448245
PG11  17615.717278   1252.001806  19866.460024    143.203252
PG13  16953.414409  -8747.623411 -18510.166822    -23.442560
PG14    586.547182  15160.079364  21843.369596    -25.761597
PG15   3143.541357  25906.081508  -4252.440624    310.697677
PG16   7130.773182  14171.090012 -21218.494172      6.934929
PG17 -14707.347199 -14425.615866 -16961.104822   -133.961177
PG18 -17808.008052  19460.804239   1591.251935    -68.321382
PG19  25695.776613   6558.280676    690.797618    -10.129969
PG20  20936.886973  -9915.255349  12919.945902   -130.106776
PG21  -7935.301830  18235.706045 -17411.139756     78.648992
PG22  -9591.450102  21568.897695  12351.463765     15.943528
PG23  25508.318073      0.288405  -7681.724117    154.986332
PG24 -11540.835233 -22434.819158  -7866.381807     51.987325
PG25   9369.726204  24833.866351   1243.997681     74.060996
PG26 -25223.568109  -8551.969807  -3999.300494    202.702717
PG27   7241.132765 -17292.296933 -18121.744162    377.969736
PG28   8417.531937 -21861.167185  12413.793109     40.414258
PG29 -23481.573436  -9780.960507  -7561.831355    359.994960
PG30 -19253.182796  17581.896867   4500.776709    553.104538
PG31   5635.126540 -14770.406639  21035.358329    298.643155
PR02  -8204.441634  -7078.305406 -23225.305461 999999.999999
PR03 -16720.327118   9942.988785 -16414.475738 999999.999999
PR04 -15868.936468  19959.656427   -797.248600 999999.999999
PR05  -4460.366230  19218.113950  16137.390931 999999.999999
PR06   8423.784104   6634.214145  23004.710663 999999.999999
PR17 -24870.138385    -78.306533  -5642.183861 999999.999999
PR18  -9044.639073   9474.458714 -21841.126698 999999.999999
PR21  24852.355644      5.862270   5790.591193 999999.999999
PR22  14206.879662  -7789.949090  19697.698490 999999.999999
PR23  -5405.024217 -11183.171575  22275.402395 999999.999999
PR24 -21247.655108  -7959.345675  11650.994433 999999.999999
EOF
